[
    {
        "Altitude(m)": 714169.5245334891,
        "Argument of Periapsis(deg)": 0.009112096949301655,
        "Eccentricity": 0.0,
        "Inclination(deg)": 45.0,
        "Latitude(deg)": -36.1712639406871,
        "Longitude(deg)": -37.26456859029836,
        "Mean Anomaly(deg)": -56.227926682015294,
        "RAAN(deg)": 109.99139844683344,
        "Satellite Name": "Constellation 1 502",
        "Satellite Number": 502,
        "Semi-Major Axis(m)": 7083131.272910544,
        "Time(s)": 152
    },
    {
        "Altitude(m)": 714157.4527573485,
        "Argument of Periapsis(deg)": 0.009172044955547059,
        "Eccentricity": 0.0,
        "Inclination(deg)": 45.0,
        "Latitude(deg)": -36.141746886376986,
        "Longitude(deg)": -37.20323540815965,
        "Mean Anomaly(deg)": -56.16722554176538,
        "RAAN(deg)": 109.99134185766786,
        "Satellite Name": "Constellation 1 502",
        "Satellite Number": 502,
        "Semi-Major Axis(m)": 7083131.272910544,
        "Time(s)": 153
    },
    {
        "Altitude(m)": 714145.3681717427,
        "Argument of Periapsis(deg)": 0.009231992961792466,
        "Eccentricity": 0.0,
        "Inclination(deg)": 45.0,
        "Latitude(deg)": -36.112193913772266,
        "Longitude(deg)": -37.14195111705535,
        "Mean Anomaly(deg)": -56.106524401515514,
        "RAAN(deg)": 109.9912852685023,
        "Satellite Name": "Constellation 1 502",
        "Satellite Number": 502,
        "Semi-Major Axis(m)": 7083131.272910544,
        "Time(s)": 154
    },
    {
        "Altitude(m)": 714133.2708202024,
        "Argument of Periapsis(deg)": 0.009291940968037872,
        "Eccentricity": 0.0,
        "Inclination(deg)": 45.0,
        "Latitude(deg)": -36.08260508742836,
        "Longitude(deg)": -37.0807156865511,
        "Mean Anomaly(deg)": -56.04582326126567,
        "RAAN(deg)": 109.99122867933674,
        "Satellite Name": "Constellation 1 502",
        "Satellite Number": 502,
        "Semi-Major Axis(m)": 7083131.272910544,
        "Time(s)": 155
    },
    {
        "Altitude(m)": 714121.1607463075,
        "Argument of Periapsis(deg)": 0.009351888974283276,
        "Eccentricity": 0.0,
        "Inclination(deg)": 45.0,
        "Latitude(deg)": -36.052980471845906,
        "Longitude(deg)": -37.019529254063706,
        "Mean Anomaly(deg)": -55.9851221210157,
        "RAAN(deg)": 109.99117209017116,
        "Satellite Name": "Constellation 1 502",
        "Satellite Number": 502,
        "Semi-Major Axis(m)": 7083131.272910544,
        "Time(s)": 156
    },
    {
        "Altitude(m)": 714109.0379936761,
        "Argument of Periapsis(deg)": 0.00941183698052868,
        "Eccentricity": 0.0,
        "Inclination(deg)": 45.0,
        "Latitude(deg)": -36.02332013146964,
        "Longitude(deg)": -36.95839145247423,
        "Mean Anomaly(deg)": -55.92442098076584,
        "RAAN(deg)": 109.9911155010056,
        "Satellite Name": "Constellation 1 502",
        "Satellite Number": 502,
        "Semi-Major Axis(m)": 7083131.272910544,
        "Time(s)": 157
    },
    {
        "Altitude(m)": 714096.9026059691,
        "Argument of Periapsis(deg)": 0.009471784986774088,
        "Eccentricity": 0.0,
        "Inclination(deg)": 45.0,
        "Latitude(deg)": -35.99362413068931,
        "Longitude(deg)": -36.897302418711355,
        "Mean Anomaly(deg)": -55.86371984051593,
        "RAAN(deg)": 109.99105891184001,
        "Satellite Name": "Constellation 1 502",
        "Satellite Number": 502,
        "Semi-Major Axis(m)": 7083131.272910544,
        "Time(s)": 158
    },
    {
        "Altitude(m)": 714084.7546268923,
        "Argument of Periapsis(deg)": 0.009531732993019492,
        "Eccentricity": 0.0,
        "Inclination(deg)": 45.0,
        "Latitude(deg)": -35.96389253383876,
        "Longitude(deg)": -36.83626212136493,
        "Mean Anomaly(deg)": -55.80301870026602,
        "RAAN(deg)": 109.99100232267446,
        "Satellite Name": "Constellation 1 502",
        "Satellite Number": 502,
        "Semi-Major Axis(m)": 7083131.272910544,
        "Time(s)": 159
    },
    {
        "Altitude(m)": 714072.5941001844,
        "Argument of Periapsis(deg)": 0.009591680999264898,
        "Eccentricity": 0.0,
        "Inclination(deg)": 45.0,
        "Latitude(deg)": -35.934125405195665,
        "Longitude(deg)": -36.775270528783956,
        "Mean Anomaly(deg)": -55.74231756001606,
        "RAAN(deg)": 109.9909457335089,
        "Satellite Name": "Constellation 1 502",
        "Satellite Number": 502,
        "Semi-Major Axis(m)": 7083131.272910544,
        "Time(s)": 160
    },
    {
        "Altitude(m)": 714060.4210696265,
        "Argument of Periapsis(deg)": 0.009651629005510304,
        "Eccentricity": 0.0,
        "Inclination(deg)": 45.0,
        "Latitude(deg)": -35.90432280898161,
        "Longitude(deg)": -36.714327609078175,
        "Mean Anomaly(deg)": -55.68161641976625,
        "RAAN(deg)": 109.99088914434331,
        "Satellite Name": "Constellation 1 502",
        "Satellite Number": 502,
        "Semi-Major Axis(m)": 7083131.272910544,
        "Time(s)": 161
    },
    {
        "Altitude(m)": 714048.2355790421,
        "Argument of Periapsis(deg)": 0.00971157701175571,
        "Eccentricity": 0.0,
        "Inclination(deg)": 45.0,
        "Latitude(deg)": -35.87448480936143,
        "Longitude(deg)": -36.65343333011891,
        "Mean Anomaly(deg)": -55.62091527951634,
        "RAAN(deg)": 109.99083255517775,
        "Satellite Name": "Constellation 1 502",
        "Satellite Number": 502,
        "Semi-Major Axis(m)": 7083131.272910544,
        "Time(s)": 162
    },
    {
        "Altitude(m)": 714036.0376722936,
        "Argument of Periapsis(deg)": 0.009771525018001118,
        "Eccentricity": 0.0,
        "Inclination(deg)": 45.0,
        "Latitude(deg)": -35.844611470443596,
        "Longitude(deg)": -36.59258782763804,
        "Mean Anomaly(deg)": -55.560214139266435,
        "RAAN(deg)": 109.99077596601217,
        "Satellite Name": "Constellation 1 502",
        "Satellite Number": 502,
        "Semi-Major Axis(m)": 7083131.272910544,
        "Time(s)": 163
    },
    {
        "Altitude(m)": 714023.827393291,
        "Argument of Periapsis(deg)": 0.00983147302424652,
        "Eccentricity": 0.0,
        "Inclination(deg)": 45.0,
        "Latitude(deg)": -35.81470285627888,
        "Longitude(deg)": -36.53179073284042,
        "Mean Anomaly(deg)": -55.499512999016524,
        "RAAN(deg)": 109.99071937684661,
        "Satellite Name": "Constellation 1 502",
        "Satellite Number": 502,
        "Semi-Major Axis(m)": 7083131.272910544,
        "Time(s)": 164
    },
    {
        "Altitude(m)": 714011.6047859703,
        "Argument of Periapsis(deg)": 0.009891421030491928,
        "Eccentricity": 0.0,
        "Inclination(deg)": 45.0,
        "Latitude(deg)": -35.784759030861466,
        "Longitude(deg)": -36.47104218098822,
        "Mean Anomaly(deg)": -55.43881185876666,
        "RAAN(deg)": 109.99066278768105,
        "Satellite Name": "Constellation 1 502",
        "Satellite Number": 502,
        "Semi-Major Axis(m)": 7083131.272910544,
        "Time(s)": 165
    },
    {
        "Altitude(m)": 713999.3698943133,
        "Argument of Periapsis(deg)": 0.009951369036737332,
        "Eccentricity": 0.0,
        "Inclination(deg)": 45.0,
        "Latitude(deg)": -35.75478005812793,
        "Longitude(deg)": -36.410342139013316,
        "Mean Anomaly(deg)": -55.378110718516744,
        "RAAN(deg)": 109.99060619851547,
        "Satellite Name": "Constellation 1 502",
        "Satellite Number": 502,
        "Semi-Major Axis(m)": 7083131.272910544,
        "Time(s)": 166
    },
    {
        "Altitude(m)": 713987.1227623464,
        "Argument of Periapsis(deg)": 0.010011317042982738,
        "Eccentricity": 0.0,
        "Inclination(deg)": 45.0,
        "Latitude(deg)": -35.724766001957136,
        "Longitude(deg)": -36.34969057361613,
        "Mean Anomaly(deg)": -55.31740957826685,
        "RAAN(deg)": 109.9905496093499,
        "Satellite Name": "Constellation 1 502",
        "Satellite Number": 502,
        "Semi-Major Axis(m)": 7083131.272910544,
        "Time(s)": 167
    },
    {
        "Altitude(m)": 713974.8634341233,
        "Argument of Periapsis(deg)": 0.010071265049228144,
        "Eccentricity": 0.0,
        "Inclination(deg)": 45.0,
        "Latitude(deg)": -35.69471692617007,
        "Longitude(deg)": -36.28908745126664,
        "Mean Anomaly(deg)": -55.25670843801693,
        "RAAN(deg)": 109.99049302018432,
        "Satellite Name": "Constellation 1 502",
        "Satellite Number": 502,
        "Semi-Major Axis(m)": 7083131.272910544,
        "Time(s)": 168
    },
    {
        "Altitude(m)": 713962.5919537504,
        "Argument of Periapsis(deg)": 0.01013121305547355,
        "Eccentricity": 0.0,
        "Inclination(deg)": 45.0,
        "Latitude(deg)": -35.664632894529504,
        "Longitude(deg)": -36.22853273820576,
        "Mean Anomaly(deg)": -55.19600729776702,
        "RAAN(deg)": 109.99043643101875,
        "Satellite Name": "Constellation 1 502",
        "Satellite Number": 502,
        "Semi-Major Axis(m)": 7083131.272910544,
        "Time(s)": 169
    },
    {
        "Altitude(m)": 713950.3083653641,
        "Argument of Periapsis(deg)": 0.010191161061718957,
        "Eccentricity": 0.0,
        "Inclination(deg)": 45.0,
        "Latitude(deg)": -35.63451397074004,
        "Longitude(deg)": -36.16802640044666,
        "Mean Anomaly(deg)": -55.13530615751716,
        "RAAN(deg)": 109.99037984185317,
        "Satellite Name": "Constellation 1 502",
        "Satellite Number": 502,
        "Semi-Major Axis(m)": 7083131.272910544,
        "Time(s)": 170
    }
]